[
  {
    "COMMENT": "GENERATED VIA SPACETRACK.ORG API",
    "ORIGINATOR": "18 SPCS",
    "NORAD_CAT_ID": "20436",
    "OBJECT_NAME": "SPOT 2",
    "OBJECT_TYPE": "PAYLOAD",
    "CLASSIFICATION_TYPE": "U",
    "INTLDES": "90005A",
    "EPOCH": "2023-07-24 06:31:45",
    "EPOCH_MICROSECONDS": "363648",
    "MEAN_MOTION": "14.68216006",
    "ECCENTRICITY": "0.0141503",
    "INCLINATION": "98.6609",
    "RA_OF_ASC_NODE": "278.7452",
    "ARG_OF_PERICENTER": "167.6229",
    "MEAN_ANOMALY": "192.851",
    "EPHEMERIS_TYPE": "0",
    "ELEMENT_SET_NO": "999",
    "REV_AT_EPOCH": "75961",
    "BSTAR": "0.00030776",
    "MEAN_MOTION_DOT": "0.00002",
    "MEAN_MOTION_DDOT": "0",
    "FILE": "3963756",
    "TLE_LINE0": "0 SPOT 2",
    "TLE_LINE1": "1 20436U 90005A   23205.27205282  .00002000  00000-0  30776-3 0  9997",
    "TLE_LINE2": "2 20436  98.6609 278.7452 0141503 167.6229 192.8510 14.68216006759615",
    "OBJECT_ID": "1990-005A",
    "OBJECT_NUMBER": "20436",
    "SEMIMAJOR_AXIS": "7044.906",
    "PERIOD": "98.078",
    "APOGEE": "766.459",
    "PERIGEE": "567.084",
    "DECAYED": "0"
  },
  {
    "COMMENT": "GENERATED VIA SPACETRACK.ORG API",
    "ORIGINATOR": "18 SPCS",
    "NORAD_CAT_ID": "20436",
    "OBJECT_NAME": "SPOT 2",
    "OBJECT_TYPE": "PAYLOAD",
    "CLASSIFICATION_TYPE": "U",
    "INTLDES": "90005A",
    "EPOCH": "2023-07-25 07:03:49",
    "EPOCH_MICROSECONDS": "204800",
    "MEAN_MOTION": "14.68220221",
    "ECCENTRICITY": "0.014158",
    "INCLINATION": "98.6609",
    "RA_OF_ASC_NODE": "279.8272",
    "ARG_OF_PERICENTER": "164.4362",
    "MEAN_ANOMALY": "196.1262",
    "EPHEMERIS_TYPE": "0",
    "ELEMENT_SET_NO": "999",
    "REV_AT_EPOCH": "75976",
    "BSTAR": "0.00030415",
    "MEAN_MOTION_DOT": "0.00001976",
    "MEAN_MOTION_DDOT": "0",
    "FILE": "3963759",
    "TLE_LINE0": "0 SPOT 2",
    "TLE_LINE1": "1 20436U 90005A   23206.29431950  .00001976  00000-0  30415-3 0  9994",
    "TLE_LINE2": "2 20436  98.6609 279.8272 0141580 164.4362 196.1262 14.68220221759766",
    "OBJECT_ID": "1990-005A",
    "OBJECT_NUMBER": "20436",
    "SEMIMAJOR_AXIS": "7044.893",
    "PERIOD": "98.078",
    "APOGEE": "766.499",
    "PERIGEE": "567.016",
    "DECAYED": "0"
  },
  {
    "COMMENT": "GENERATED VIA SPACETRACK.ORG API",
    "ORIGINATOR": "18 SPCS",
    "NORAD_CAT_ID": "20436",
    "OBJECT_NAME": "SPOT 2",
    "OBJECT_TYPE": "PAYLOAD",
    "CLASSIFICATION_TYPE": "U",
    "INTLDES": "90005A",
    "EPOCH": "2023-07-26 07:35:52",
    "EPOCH_MICROSECONDS": "735776",
    "MEAN_MOTION": "14.68225444",
    "ECCENTRICITY": "0.014162",
    "INCLINATION": "98.661",
    "RA_OF_ASC_NODE": "280.9093",
    "ARG_OF_PERICENTER": "161.2595",
    "MEAN_ANOMALY": "199.3899",
    "EPHEMERIS_TYPE": "0",
    "ELEMENT_SET_NO": "999",
    "REV_AT_EPOCH": "75991",
    "BSTAR": "0.00034918",
    "MEAN_MOTION_DOT": "0.00002279",
    "MEAN_MOTION_DDOT": "0",
    "FILE": "3963761",
    "TLE_LINE0": "0 SPOT 2",
    "TLE_LINE1": "1 20436U 90005A   23207.31658259  .00002279  00000-0  34918-3 0  9990",
    "TLE_LINE2": "2 20436  98.6610 280.9093 0141620 161.2595 199.3899 14.68225444759910",
    "OBJECT_ID": "1990-005A",
    "OBJECT_NUMBER": "20436",
    "SEMIMAJOR_AXIS": "7044.876",
    "PERIOD": "98.078",
    "APOGEE": "766.510",
    "PERIGEE": "566.971",
    "DECAYED": "0"
  },
  {
    "COMMENT": "GENERATED VIA SPACETRACK.ORG API",
    "ORIGINATOR": "18 SPCS",
    "NORAD_CAT_ID": "20436",
    "OBJECT_NAME": "SPOT 2",
    "OBJECT_TYPE": "PAYLOAD",
    "CLASSIFICATION_TYPE": "U",
    "INTLDES": "90005A",
    "EPOCH": "2023-07-26 19:02:50",
    "EPOCH_MICROSECONDS": "267040",
    "MEAN_MOTION": "14.68227851",
    "ECCENTRICITY": "0.0141651",
    "INCLINATION": "98.6611",
    "RA_OF_ASC_NODE": "281.4142",
    "ARG_OF_PERICENTER": "159.7757",
    "MEAN_ANOMALY": "200.9137",
    "EPHEMERIS_TYPE": "0",
    "ELEMENT_SET_NO": "999",
    "REV_AT_EPOCH": "75998",
    "BSTAR": "0.00036209",
    "MEAN_MOTION_DOT": "0.00002366",
    "MEAN_MOTION_DDOT": "0",
    "FILE": "3963989",
    "TLE_LINE0": "0 SPOT 2",
    "TLE_LINE1": "1 20436U 90005A   23207.79363735  .00002366  00000-0  36209-3 0  9996",
    "TLE_LINE2": "2 20436  98.6611 281.4142 0141651 159.7757 200.9137 14.68227851759983",
    "OBJECT_ID": "1990-005A",
    "OBJECT_NUMBER": "20436",
    "SEMIMAJOR_AXIS": "7044.868",
    "PERIOD": "98.077",
    "APOGEE": "766.524",
    "PERIGEE": "566.942",
    "DECAYED": "0"
  },
  {
    "COMMENT": "GENERATED VIA SPACETRACK.ORG API",
    "ORIGINATOR": "18 SPCS",
    "NORAD_CAT_ID": "20436",
    "OBJECT_NAME": "SPOT 2",
    "OBJECT_TYPE": "PAYLOAD",
    "CLASSIFICATION_TYPE": "U",
    "INTLDES": "90005A",
    "EPOCH": "2023-07-27 06:29:47",
    "EPOCH_MICROSECONDS": "730912",
    "MEAN_MOTION": "14.68229753",
    "ECCENTRICITY": "0.0141675",
    "INCLINATION": "98.6611",
    "RA_OF_ASC_NODE": "281.9192",
    "ARG_OF_PERICENTER": "158.2969",
    "MEAN_ANOMALY": "202.432",
    "EPHEMERIS_TYPE": "0",
    "ELEMENT_SET_NO": "999",
    "REV_AT_EPOCH": "76007",
    "BSTAR": "0.00034627",
    "MEAN_MOTION_DOT": "0.0000226",
    "MEAN_MOTION_DDOT": "0",
    "FILE": "3964566",
    "TLE_LINE0": "0 SPOT 2",
    "TLE_LINE1": "1 20436U 90005A   23208.27069133  .00002260  00000-0  34627-3 0  9990",
    "TLE_LINE2": "2 20436  98.6611 281.9192 0141675 158.2969 202.4320 14.68229753760074",
    "OBJECT_ID": "1990-005A",
    "OBJECT_NUMBER": "20436",
    "SEMIMAJOR_AXIS": "7044.862",
    "PERIOD": "98.077",
    "APOGEE": "766.535",
    "PERIGEE": "566.919",
    "DECAYED": "0"
  },
  {
    "COMMENT": "GENERATED VIA SPACETRACK.ORG API",
    "ORIGINATOR": "18 SPCS",
    "NORAD_CAT_ID": "20436",
    "OBJECT_NAME": "SPOT 2",
    "OBJECT_TYPE": "PAYLOAD",
    "CLASSIFICATION_TYPE": "U",
    "INTLDES": "90005A",
    "EPOCH": "2023-07-27 06:29:47",
    "EPOCH_MICROSECONDS": "730912",
    "MEAN_MOTION": "14.68229753",
    "ECCENTRICITY": "0.0141675",
    "INCLINATION": "98.6611",
    "RA_OF_ASC_NODE": "281.9192",
    "ARG_OF_PERICENTER": "158.2969",
    "MEAN_ANOMALY": "202.432",
    "EPHEMERIS_TYPE": "0",
    "ELEMENT_SET_NO": "999",
    "REV_AT_EPOCH": "76005",
    "BSTAR": "0.00034627",
    "MEAN_MOTION_DOT": "0.0000226",
    "MEAN_MOTION_DDOT": "0",
    "FILE": "3964647",
    "TLE_LINE0": "0 SPOT 2",
    "TLE_LINE1": "1 20436U 90005A   23208.27069133  .00002260  00000-0  34627-3 0  9990",
    "TLE_LINE2": "2 20436  98.6611 281.9192 0141675 158.2969 202.4320 14.68229753760052",
    "OBJECT_ID": "1990-005A",
    "OBJECT_NUMBER": "20436",
    "SEMIMAJOR_AXIS": "7044.862",
    "PERIOD": "98.077",
    "APOGEE": "766.535",
    "PERIGEE": "566.919",
    "DECAYED": "0"
  },
  {
    "COMMENT": "GENERATED VIA SPACETRACK.ORG API",
    "ORIGINATOR": "18 SPCS",
    "NORAD_CAT_ID": "20436",
    "OBJECT_NAME": "SPOT 2",
    "OBJECT_TYPE": "PAYLOAD",
    "CLASSIFICATION_TYPE": "U",
    "INTLDES": "90005A",
    "EPOCH": "2023-07-27 19:34:53",
    "EPOCH_MICROSECONDS": "291712",
    "MEAN_MOTION": "14.68232569",
    "ECCENTRICITY": "0.0141697",
    "INCLINATION": "98.6612",
    "RA_OF_ASC_NODE": "282.4962",
    "ARG_OF_PERICENTER": "156.6052",
    "MEAN_ANOMALY": "204.1684",
    "EPHEMERIS_TYPE": "0",
    "ELEMENT_SET_NO": "999",
    "REV_AT_EPOCH": "76013",
    "BSTAR": "0.00034793",
    "MEAN_MOTION_DOT": "0.00002271",
    "MEAN_MOTION_DDOT": "0",
    "FILE": "3964919",
    "TLE_LINE0": "0 SPOT 2",
    "TLE_LINE1": "1 20436U 90005A   23208.81589458  .00002271  00000-0  34793-3 0  9993",
    "TLE_LINE2": "2 20436  98.6612 282.4962 0141697 156.6052 204.1684 14.68232569760133",
    "OBJECT_ID": "1990-005A",
    "OBJECT_NUMBER": "20436",
    "SEMIMAJOR_AXIS": "7044.853",
    "PERIOD": "98.077",
    "APOGEE": "766.542",
    "PERIGEE": "566.895",
    "DECAYED": "0"
  },
  {
    "COMMENT": "GENERATED VIA SPACETRACK.ORG API",
    "ORIGINATOR": "18 SPCS",
    "NORAD_CAT_ID": "20436",
    "OBJECT_NAME": "SPOT 2",
    "OBJECT_TYPE": "PAYLOAD",
    "CLASSIFICATION_TYPE": "U",
    "INTLDES": "90005A",
    "EPOCH": "2023-07-28 05:23:42",
    "EPOCH_MICROSECONDS": "437472",
    "MEAN_MOTION": "14.68233857",
    "ECCENTRICITY": "0.0141731",
    "INCLINATION": "98.6613",
    "RA_OF_ASC_NODE": "282.929",
    "ARG_OF_PERICENTER": "155.3355",
    "MEAN_ANOMALY": "205.4714",
    "EPHEMERIS_TYPE": "0",
    "ELEMENT_SET_NO": "999",
    "REV_AT_EPOCH": "76019",
    "BSTAR": "0.00031937",
    "MEAN_MOTION_DOT": "0.0000208",
    "MEAN_MOTION_DDOT": "0",
    "FILE": "3965518",
    "TLE_LINE0": "0 SPOT 2",
    "TLE_LINE1": "1 20436U 90005A   23209.22479673  .00002080  00000-0  31937-3 0  9991",
    "TLE_LINE2": "2 20436  98.6613 282.9290 0141731 155.3355 205.4714 14.68233857760199",
    "OBJECT_ID": "1990-005A",
    "OBJECT_NUMBER": "20436",
    "SEMIMAJOR_AXIS": "7044.849",
    "PERIOD": "98.077",
    "APOGEE": "766.561",
    "PERIGEE": "566.867",
    "DECAYED": "0"
  },
  {
    "COMMENT": "GENERATED VIA SPACETRACK.ORG API",
    "ORIGINATOR": "18 SPCS",
    "NORAD_CAT_ID": "20436",
    "OBJECT_NAME": "SPOT 2",
    "OBJECT_TYPE": "PAYLOAD",
    "CLASSIFICATION_TYPE": "U",
    "INTLDES": "90005A",
    "EPOCH": "2023-07-29 04:17:36",
    "EPOCH_MICROSECONDS": "864096",
    "MEAN_MOTION": "14.68238886",
    "ECCENTRICITY": "0.0141763",
    "INCLINATION": "98.6613",
    "RA_OF_ASC_NODE": "283.9388",
    "ARG_OF_PERICENTER": "152.3728",
    "MEAN_ANOMALY": "208.5101",
    "EPHEMERIS_TYPE": "0",
    "ELEMENT_SET_NO": "999",
    "REV_AT_EPOCH": "76035",
    "BSTAR": "0.00034216",
    "MEAN_MOTION_DOT": "0.00002233",
    "MEAN_MOTION_DDOT": "0",
    "FILE": "3965937",
    "TLE_LINE0": "0 SPOT 2",
    "TLE_LINE1": "1 20436U 90005A   23210.17889889  .00002233  00000-0  34216-3 0  9994",
    "TLE_LINE2": "2 20436  98.6613 283.9388 0141763 152.3728 208.5101 14.68238886760353",
    "OBJECT_ID": "1990-005A",
    "OBJECT_NUMBER": "20436",
    "SEMIMAJOR_AXIS": "7044.833",
    "PERIOD": "98.077",
    "APOGEE": "766.568",
    "PERIGEE": "566.828",
    "DECAYED": "0"
  }
]